[{"OBJECT_NAME":"STARLINK-30053","OBJECT_ID":"2023-067N","EPOCH":"2026-03-09T21:54:52.196832","MEAN_MOTION":15.27575762,"ECCENTRICITY":0.00014499,"INCLINATION":43.0001,"RA_OF_ASC_NODE":269.8467,"ARG_OF_PERICENTER":267.8303,"MEAN_ANOMALY":92.2383,"EPHEMERIS_TYPE":0,"CLASSIFICATION_TYPE":"U","NORAD_CAT_ID":56700,"ELEMENT_SET_NO":999,"REV_AT_EPOCH":15573,"BSTAR":9.1684946e-5,"MEAN_MOTION_DOT":2.261e-5,"MEAN_MOTION_DDOT":0},{"OBJECT_NAME":"UTMN 2 (RS27S)","OBJECT_ID":"2023-091AP","EPOCH":"2026-03-09T23:09:07.917408","MEAN_MOTION":15.29495965,"ECCENTRICITY":0.00097379,"INCLINATION":97.5194,"RA_OF_ASC_NODE":134.949,"ARG_OF_PERICENTER":76.0788,"MEAN_ANOMALY":284.1534,"EPHEMERIS_TYPE":0,"CLASSIFICATION_TYPE":"U","NORAD_CAT_ID":57203,"ELEMENT_SET_NO":999,"REV_AT_EPOCH":14936,"BSTAR":0.00056135701,"MEAN_MOTION_DOT":0.00016013,"MEAN_MOTION_DDOT":0}]
